[{"OBJECT_NAME":"GLOBALSTAR M096","OBJECT_ID":"2013-005D","EPOCH":"2026-03-07T03:50:40.356384","MEAN_MOTION":12.62263406,"ECCENTRICITY":7.71e-5,"INCLINATION":52.0071,"RA_OF_ASC_NODE":150.162,"ARG_OF_PERICENTER":112.9065,"MEAN_ANOMALY":247.1883,"EPHEMERIS_TYPE":0,"CLASSIFICATION_TYPE":"U","NORAD_CAT_ID":39075,"ELEMENT_SET_NO":999,"REV_AT_EPOCH":60450,"BSTAR":0.00013909,"MEAN_MOTION_DOT":-7.9e-7,"MEAN_MOTION_DDOT":0},{"OBJECT_NAME":"GLOBALSTAR M078","OBJECT_ID":"2013-005E","EPOCH":"2026-03-06T12:00:07.964352","MEAN_MOTION":12.6227594,"ECCENTRICITY":0.00014885,"INCLINATION":51.9853,"RA_OF_ASC_NODE":236.3225,"ARG_OF_PERICENTER":67.3996,"MEAN_ANOMALY":292.7028,"EPHEMERIS_TYPE":0,"CLASSIFICATION_TYPE":"U","NORAD_CAT_ID":39076,"ELEMENT_SET_NO":999,"REV_AT_EPOCH":60304,"BSTAR":-2.8974581e-5,"MEAN_MOTION_DOT":-1.09e-6,"MEAN_MOTION_DDOT":0},{"OBJECT_NAME":"GLOBALSTAR M095","OBJECT_ID":"2013-005F","EPOCH":"2026-03-06T22:08:34.913184","MEAN_MOTION":12.6227616,"ECCENTRICITY":0.000136,"INCLINATION":52.0059,"RA_OF_ASC_NODE":232.4952,"ARG_OF_PERICENTER":90.7764,"MEAN_ANOMALY":269.3258,"EPHEMERIS_TYPE":0,"CLASSIFICATION_TYPE":"U","NORAD_CAT_ID":39077,"ELEMENT_SET_NO":999,"REV_AT_EPOCH":60295,"BSTAR":-2.2011e-5,"MEAN_MOTION_DOT":-1.08e-6,"MEAN_MOTION_DDOT":0},{"OBJECT_NAME":"GLOBALSTAR M087","OBJECT_ID":"2022-064A","EPOCH":"2026-03-07T00:21:50.827104","MEAN_MOTION":12.62266841,"ECCENTRICITY":7.03e-5,"INCLINATION":52.0023,"RA_OF_ASC_NODE":13.5104,"ARG_OF_PERICENTER":84.9297,"MEAN_ANOMALY":275.165,"EPHEMERIS_TYPE":0,"CLASSIFICATION_TYPE":"U","NORAD_CAT_ID":52888,"ELEMENT_SET_NO":999,"REV_AT_EPOCH":17823,"BSTAR":3.619e-5,"MEAN_MOTION_DOT":-9.7e-7,"MEAN_MOTION_DDOT":0}]
