GLOBALSTAR M096         
1 39075U 13005D   26066.16018931 -.00000079  00000+0  13909-3 0  9993
2 39075  52.0071 150.1620 0000771 112.9065 247.1883 12.62263406604505
GLOBALSTAR M078         
1 39076U 13005E   26065.50009218 -.00000109  00000+0 -28975-4 0  9994
2 39076  51.9853 236.3225 0001488  67.3996 292.7028 12.62275940603043
GLOBALSTAR M095         
1 39077U 13005F   26065.92262631 -.00000108  00000+0 -22011-4 0  9995
2 39077  52.0059 232.4952 0001360  90.7764 269.3258 12.62276160602959
GLOBALSTAR M087         
1 52888U 22064A   26066.01517161 -.00000097  00000+0  36190-4 0  9996
2 52888  52.0023  13.5104 0000703  84.9297 275.1650 12.62266841178233
